CYGNUS NG-23            
1 65616U 25208A   25355.18262870  .00008423  00000+0  15703-3 0  9990
2 65616  51.6324 100.6685 0003175 279.9061  80.1569 15.49696285   221
DRAGONFLY               
1 65729U 98067XH  25355.50347433  .00170588  00000+0  11144-2 0  9999
2 65729  51.6248  90.7906 0007643 331.3887  28.6692 15.74757439 14540
1998-067XK              
1 65731U 98067XK  25354.00696790  .00076617  00000+0  70175-3 0  9997
2 65731  51.6294 100.3244 0004763 292.7833  67.2659 15.67078773 14280
RSP-03                  
1 65732U 98067XL  25355.52451324  .00121759  00000+0  95100-3 0  9991
2 65732  51.6266  91.6927 0005725 306.8902  53.1571 15.70746693 14546
GHS-01                  
1 65733U 98067XM  25355.31006144  .00229224  00000+0  12619-2 0  9994
2 65733  51.6276  91.0058 0008633 334.0400  26.0167 15.78445011 14531
YOTSUBA-KULOVER         
1 65941U 98067XN  25354.72017268  .00050568  00000+0  60496-3 0  9998
2 65941  51.6291  99.8352 0001834 329.1843  30.9043 15.60468016 11102
BOTAN                   
1 65942U 98067XP  25354.57898423  .00082185  00000+0  83574-3 0  9994
2 65942  51.6283  99.6415 0002950 304.2475  55.8240 15.64441775 11097
E-KAGAKU-1              
1 65943U 98067XQ  25352.35057484  .00070368  00000+0  84620-3 0  9996
2 65943  51.6302 111.7666 0001345 249.8249 110.2600 15.60193795 10732
HRC MONOBLOCK CAMERA    
1 66052U 98067XR  25355.52305909  .00030976  00000+0  46332-3 0  9997
2 66052  51.6310  97.6939 0002361 225.6973 134.3824 15.54715568 10201
HTV-X1                  
1 66174U 25241A   25355.18262870  .00008423  00000+0  15703-3 0  9997
2 66174  51.6324 100.6685 0003175 279.9061  80.1569 15.49696285   513
SZ-21 MODULE            
1 66515U 25246C   25355.10297298  .00021377  00000+0  23274-3 0  9990
2 66515  41.4772 325.0132 0005392 304.7401  55.2931 15.62895195  5757
SHENZHOU-22             
1 66645U 25272A   25355.23271625  .00015946  00000+0  19872-3 0  9997
2 66645  41.4687 325.1329 0007749 105.4926 254.6769 15.59524435265193
